[{"OBJECT_NAME":"NORSAT 3","OBJECT_ID":"2021-034E","EPOCH":"2026-03-09T22:23:32.431200","MEAN_MOTION":15.04338407,"ECCENTRICITY":0.0005858,"INCLINATION":97.5427,"RA_OF_ASC_NODE":128.5959,"ARG_OF_PERICENTER":280.8366,"MEAN_ANOMALY":79.2201,"EPHEMERIS_TYPE":0,"CLASSIFICATION_TYPE":"U","NORAD_CAT_ID":48272,"ELEMENT_SET_NO":999,"REV_AT_EPOCH":26491,"BSTAR":0.00030361478,"MEAN_MOTION_DOT":4.174e-5,"MEAN_MOTION_DDOT":0},{"OBJECT_NAME":"STARLINK-30129","OBJECT_ID":"2023-067B","EPOCH":"2026-03-09T00:21:49.604544","MEAN_MOTION":15.02532206,"ECCENTRICITY":0.00011255,"INCLINATION":43.0028,"RA_OF_ASC_NODE":278.5242,"ARG_OF_PERICENTER":259.4018,"MEAN_ANOMALY":100.6698,"EPHEMERIS_TYPE":0,"CLASSIFICATION_TYPE":"U","NORAD_CAT_ID":56689,"ELEMENT_SET_NO":999,"REV_AT_EPOCH":15555,"BSTAR":2.9242852e-5,"MEAN_MOTION_DOT":1.91e-6,"MEAN_MOTION_DDOT":0}]
